      2.10          N: GNSS NAV DATA                        RINEX VERSION / TYPE
fic2rin                                 12/13/2023 00:17:48 PGM / RUN BY / DATE
                                                            END OF HEADER
8  23 12 12  1 59 44.0 -.156511552632D-03 -.193267624127D-11  .000000000000D+00
     .250000000000D+02  .137375000000D+03  .472519682341D-08  .272497464039D+01
     .715814530849D-05  .899109349120D-02  .328756868839D-05  .515356184769D+04
     .179984000000D+06 -.197440385818D-06 -.233345545479D+01 -.651925802231D-07
     .955846395868D+00  .313281250000D+03  .281094658938D+00 -.820284168128D-08
     .333585323739D-09  .100000000000D+01  .229200000000D+04  .000000000000D+00
     .240000000000D+01  .000000000000D+00  .512227416039D-08  .250000000000D+02
     .172800000000D+06  .400000000000D+01
23 23 12 12  2  0  0.0  .114487484097D-03  .682121026330D-11  .000000000000D+00
     .214000000000D+03 -.125937500000D+03  .379694387224D-08 -.326746926710D+00
    -.666081905365D-05  .392398750409D-02  .109393149614D-04  .515370461464D+04
     .180000000000D+06  .912696123123D-07 -.236525822444D+00  .316649675369D-07
     .977159441630D+00  .179687500000D+03 -.301192824967D+01 -.757852996191D-08
     .764317551180D-10  .100000000000D+01  .229200000000D+04  .000000000000D+00
     .240000000000D+01  .000000000000D+00 -.838190317154D-08  .726000000000D+03
     .172800000000D+06  .400000000000D+01
16 23 12 12  1 59 44.0 -.405837316066D-03  .716227077646D-11  .000000000000D+00
     .000000000000D+00  .104125000000D+03  .401695303650D-08 -.252385404385D+01
     .502914190292D-05  .137844210258D-01  .117737799883D-04  .515370969200D+04
     .179984000000D+06  .102445483208D-06  .302091456483D+01 -.154599547386D-06
     .963733553382D+00  .151750000000D+03  .806147960830D+00 -.748281168914D-08
    -.110718897601D-09  .100000000000D+01  .229200000000D+04  .000000000000D+00
     .240000000000D+01  .000000000000D+00 -.102445483208D-07  .000000000000D+00
     .176820000000D+06  .400000000000D+01
15 23 12 12  1 59 44.0  .106039922684D-03  .386535248253D-11  .000000000000D+00
     .500000000000D+01  .856250000000D+01  .525271879682D-08  .174061911058D+01
     .150874257088D-06  .154396556318D-01  .824593007565D-05  .515357262230D+04
     .179984000000D+06 -.912696123123D-07  .691785720978D+00 -.344589352608D-06
     .933898091096D+00  .208406250000D+03  .127992810527D+01 -.819105547605D-08
     .616454249222D-09  .100000000000D+01  .229200000000D+04  .000000000000D+00
     .240000000000D+01  .000000000000D+00 -.102445483208D-07  .500000000000D+01
     .176850000000D+06  .400000000000D+01
26 23 12 12  1 59 44.0  .209953170270D-03 -.306954461848D-11  .000000000000D+00
     .000000000000D+00  .715000000000D+02  .476519848964D-08 -.174864945998D+01
     .341422855854D-05  .867962220218D-02  .114291906357D-04  .515380459595D+04
     .179984000000D+06  .931322574615D-08  .285897970512D+01 -.135973095894D-06
     .932666154615D+00  .140343750000D+03  .506791300520D+00 -.790354350003D-08
    -.285726187357D-09  .100000000000D+01  .229200000000D+04  .000000000000D+00
     .240000000000D+01  .000000000000D+00  .698491930962D-08  .000000000000D+00
     .176940000000D+06  .400000000000D+01
14 23 12 12  3 29 36.0  .268418341875D-03  .105728759081D-10  .000000000000D+00
     .114000000000D+03  .838125000000D+02  .447554356721D-08 -.141713093776D-01
     .440329313278D-05  .374148273841D-02  .109784305096D-04  .515368814278D+04
     .185376000000D+06  .651925802231D-07  .296106205555D+01  .391155481339D-07
     .947456496315D+00  .161125000000D+03 -.295478273278D+01 -.791711549392D-08
    -.257867884090D-09  .100000000000D+01  .229200000000D+04  .000000000000D+00
     .240000000000D+01  .000000000000D+00 -.791624188423D-08  .114000000000D+03
     .178200000000D+06  .400000000000D+01
26 23 12 12  3 59 44.0  .209931284189D-03 -.306954461848D-11  .000000000000D+00
     .200000000000D+01  .788437500000D+02  .480912889095D-08 -.698662236167D+00
     .415183603764D-05  .867966248188D-02  .112261623144D-04  .515380282211D+04
     .187184000000D+06  .139698386192D-06  .285892307118D+01  .596046447754D-07
     .932663003489D+00  .145156250000D+03  .506907374293D+00 -.808426531353D-08
    -.411445709794D-09  .100000000000D+01  .229200000000D+04  .000000000000D+00
     .240000000000D+01  .000000000000D+00  .698491930962D-08  .200000000000D+01
     .180000000000D+06  .400000000000D+01
15 23 12 12  3 59 44.0  .106067396700D-03  .386535248253D-11  .000000000000D+00
     .600000000000D+01  .145000000000D+02  .516021494367D-08  .279083970933D+01
     .696629285812D-06  .154390354874D-01  .790879130363D-05  .515357395172D+04
     .187184000000D+06  .126659870148D-06  .691728516492D+00 -.115483999252D-06
     .933903423432D+00  .209531250000D+03  .127995456361D+01 -.792211570220D-08
     .556451749877D-09  .100000000000D+01  .229200000000D+04  .000000000000D+00
     .240000000000D+01  .000000000000D+00 -.102445483208D-07  .600000000000D+01
     .180000000000D+06  .400000000000D+01
16 23 12 12  3 59 44.0 -.405786093324D-03  .716227077646D-11  .000000000000D+00
     .160000000000D+02  .114562500000D+03  .402659629533D-08 -.147383420281D+01
     .586360692978D-05  .137852516491D-01  .109896063805D-04  .515370584869D+04
     .187184000000D+06  .275671482086D-06  .302086100447D+01 -.856816768646D-07
     .963732481063D+00  .162406250000D+03  .806284271148D+00 -.756031491746D-08
    -.185007706314D-09  .100000000000D+01  .229200000000D+04  .000000000000D+00
     .240000000000D+01  .000000000000D+00 -.102445483208D-07  .160000000000D+02
     .180000000000D+06  .400000000000D+01
2  23 12 12  4  0  0.0 -.516759697348D-03  .534328137292D-11  .000000000000D+00
     .760000000000D+02 -.765000000000D+02  .456018995022D-08 -.201994098345D+01
    -.347383320332D-05  .162530246889D-01 -.165775418282D-06  .515390621948D+04
     .187200000000D+06  .102445483208D-06 -.133776846729D+01  .378116965294D-06
     .967373670996D+00  .383500000000D+03 -.129170850327D+01 -.820998483597D-08
    -.133576992589D-09  .100000000000D+01  .229200000000D+04  .000000000000D+00
     .240000000000D+01  .000000000000D+00 -.176951289177D-07  .760000000000D+02
     .180000000000D+06  .400000000000D+01
1  23 12 12  4  0  0.0  .163859222084D-03  .454747350886D-12  .000000000000D+00
     .490000000000D+02 -.977500000000D+02  .411731435981D-08  .163933619369D+01
    -.524148344994D-05  .130197454710D-01  .141747295856D-05  .515402379417D+04
     .187200000000D+06 -.262632966042D-06 -.123472993313D+01 -.949949026108D-07
     .990315611672D+00  .370687500000D+03  .100048322294D+01 -.814748223248D-08
    -.221437795202D-09  .100000000000D+01  .229200000000D+04  .000000000000D+00
     .340000000000D+01  .630000000000D+02  .512227416039D-08  .490000000000D+02
     .180000000000D+06  .400000000000D+01
5  23 12 12  4  0  0.0 -.153794419020D-03 -.147792889038D-11  .000000000000D+00
     .800000000000D+02 -.109593750000D+03  .397909431668D-08 -.214724580438D+01
    -.568665564060D-05  .581497419626D-02  .108629465103D-04  .515377622604D+04
     .187200000000D+06  .782310962677D-07 -.254960980651D+00 -.223517417908D-07
     .969313659828D+00  .173125000000D+03  .123835975472D+01 -.755102881637D-08
     .132148361653D-09  .100000000000D+01  .229200000000D+04  .000000000000D+00
     .240000000000D+01  .000000000000D+00 -.111758708954D-07  .800000000000D+02
     .180000000000D+06  .400000000000D+01
3  23 12 12  4  0  0.0  .483561307192D-04  .275122147286D-10  .000000000000D+00
     .460000000000D+02 -.114343750000D+03  .378837208662D-08  .547812608948D+00
    -.598840415478D-05  .505123904441D-02  .103544443846D-04  .515355569267D+04
     .187200000000D+06 -.242143869400D-07 -.205833919638D+00  .577419996262D-07
     .982327610825D+00  .191750000000D+03  .110834433531D+01 -.759353058674D-08
     .964325882329D-10  .100000000000D+01  .229200000000D+04  .000000000000D+00
     .240000000000D+01  .000000000000D+00  .186264514923D-08  .460000000000D+02
     .180000000000D+06  .400000000000D+01
12 23 12 12  4  0  0.0 -.456523150206D-03 -.397903932026D-11  .000000000000D+00
     .260000000000D+02  .101343750000D+03  .410552815458D-08  .286306649844D+00
     .509060919285D-05  .879440316930D-02  .106412917376D-04  .515375107384D+04
     .187200000000D+06 -.145286321640D-06  .300281861636D+01 -.745058059692D-08
     .964144623122D+00  .178750000000D+03  .139689045672D+01 -.779282460242D-08
    -.263225250103D-09  .100000000000D+01  .229200000000D+04  .000000000000D+00
     .240000000000D+01  .000000000000D+00 -.125728547573D-07  .260000000000D+02
     .180000000000D+06  .400000000000D+01
